{"type": "FeatureCollection", "features": [{"type": "Feature", "properties": {"pcode": "ET", "area_name": "Ethiopia", "parent_pcode": null, "level": "country"}, "geometry": {"type": "Polygon", "coordinates": [[[35.27708000000018, 5.458050000000185], [35.27041, 5.438330000000121], [35.30305, 5.377360000000124], [35.32625000000013, 5.35708000000011], [35.352840000000185, 5.35069], [35.41909, 5.398400000000152], [35.44371000000018, 5.425520000000176], [35.50471, 5.43139], [35.72624000000013, 5.364440000000116], [35.77499000000017, 5.337220000000173], [35.82166, 5.32861], [35.79874, 5.265550000000189], [35.79624000000018, 5.23514], [35.80513000000013, 5.206810000000132], [35.83069, 5.168400000000133], [35.82361, 5.13667], [35.77999000000017, 5.08264], [35.77444000000014, 4.79861000000011], [35.92472, 4.64028], [35.94770000000017, 4.62933], [35.95111, 4.521110000000135], [36.04530000000011, 4.44708], [36.21117000000015, 4.448], [36.27166, 4.43917], [36.6475, 4.44667], [36.714253964000136, 4.433850543000176], [36.88777, 4.43472], [37.0397200000001, 4.375550000000146], [37.099160000000154, 4.33167], [37.13027000000011, 4.28639], [37.99805, 3.728610000000117], [38.03361, 3.698060000000112], [38.0561100000001, 3.651940000000138], [38.12111000000016, 3.61167], [38.448050000000194, 3.599440000000129], [38.51694, 3.62694], [38.913610000000176, 3.513890000000117], [39.08472000000012, 3.534440000000131], [39.19694, 3.478610000000174], [39.24889000000019, 3.471390000000156], [39.295, 3.475280000000112], [39.32864, 3.49965], [39.33138000000014, 3.469170000000133], [39.45083000000017, 3.4625], [39.49958, 3.450140000000147], [39.50208, 3.422640000000115], [39.51902000000018, 3.409310000000119], [39.560270000000116, 3.40667000000019], [39.594990000000166, 3.500830000000121], [39.78278000000017, 3.67833000000013], [39.86666, 3.86944], [40.1825, 4.0225], [40.38861, 4.09889], [40.398890000000165, 4.12306], [40.67222, 4.228610000000174], [40.773384137000164, 4.282452356000022], [40.81384277400008, 4.255150794999963], [40.844100952000076, 4.246257782000043], [40.85576629700006, 4.226706981], [40.88238144000013, 4.212838173000023], [40.88320541400009, 4.192656994000117], [40.90415954600013, 4.154615879000175], [40.96508026100008, 4.132068157000106], [40.982192994000116, 4.110606192999967], [41.001422882000156, 4.10270977100015], [41.026065826000035, 4.07086420100012], [41.04071044900019, 4.064825058], [41.07265091000016, 4.022595882000076], [41.091869354000096, 4.013317108000081], [41.10538864100005, 3.985281945000111], [41.11800384500003, 3.987095117000024], [41.12485504200015, 3.97419595700012], [41.13562011700009, 3.971411944000067], [41.132629395000095, 3.966588021], [41.169265747000054, 3.942579985000066], [41.20098114000007, 3.93810606], [41.203208924000194, 3.947947979000162], [41.22707748400012, 3.949891091000154], [41.23530197100018, 3.958884954000098], [41.27577590900006, 3.955415011000127], [41.32630920500003, 3.938761950000128], [41.354564667000034, 3.960318089000111], [41.378616333000025, 3.951745987000152], [41.39125442500011, 3.962757110000041], [41.4301872260001, 3.944943905000116], [41.43709182700019, 3.95481896400014], [41.4797325130001, 3.95217704800001], [41.505668640000124, 3.96476197200019], [41.509769440000184, 3.954627991000052], [41.54515838600014, 3.982140064000077], [41.56689834600013, 3.966666937000127], [41.61782074000013, 3.973889113000155], [41.62770080600012, 3.983294010000179], [41.67441177400019, 3.959924936], [41.72058868500005, 3.992460012000095], [41.755420685000104, 3.984766006000143], [41.75402450600012, 3.97671794900009], [41.77257919300013, 3.972290993000058], [41.79254913300008, 3.979363918000104], [41.79821395800013, 3.956800938000185], [41.82068252600004, 3.955812931000025], [41.820648193000125, 3.94615006500004], [41.83348846400003, 3.945880889000023], [41.84055709900019, 3.955019951000168], [41.85206985500008, 3.950186968000025], [41.89009094200014, 3.978439092000144], [41.90689849900019, 3.978008032000162], [41.94345855700004, 4.016658783000082], [41.94622039800004, 4.055664063000108], [41.97422027599998, 4.080558777000022], [41.97904968300003, 4.095186233999982], [42.00000000000017, 4.093367100000137], [42.061088562, 4.161539078000033], [42.0876693730001, 4.179365158000053], [42.266151204000096, 4.182680943000037], [42.55453109700011, 4.206250191000095], [42.58508733100007, 4.214725171], [42.56378938400013, 4.246906928999977], [42.74083000000013, 4.272780000000125], [42.85569, 4.30472], [42.91999, 4.364030000000128], [42.93361, 4.388750000000186], [42.95722, 4.48111], [42.98569, 4.52542], [43.158190000000104, 4.66639], [43.32166000000012, 4.74861], [43.50854576000012, 4.829276613000047], [43.53971904400015, 4.789742177999983], [43.79863192, 4.86921770500004], [43.823424633000116, 4.909017784000184], [43.92222000000015, 4.93444], [43.98194000000012, 4.96305], [44.95083000000017, 4.9025], [45.955830000000105, 5.999170000000106], [46.56139, 6.61944], [46.99139000000014, 7.056940000000168], [47.98824, 8.00411], [47.01194000000015, 8.00111], [44.01055000000014, 9.007220000000132], [43.627220000000136, 9.35444], [43.5830600000001, 9.33611], [43.44166, 9.41764], [43.42583000000013, 9.43458], [43.42777, 9.48528000000016], [43.38666000000018, 9.55694], [43.32847000000015, 9.61958], [43.28333, 9.634720000000186], [43.27528000000012, 9.64556], [43.26055, 9.68472], [43.22486, 9.86319], [43.20409, 9.892290000000173], [43.18041, 9.902780000000178], [43.11028000000016, 9.908890000000156], [43.0843, 9.92486], [43.05166, 9.96819], [43.01305, 10.081110000000137], [42.98055, 10.117640000000165], [42.89097, 10.17208], [42.85069, 10.21944000000019], [42.80611, 10.35], [42.78611000000012, 10.455550000000187], [42.70944000000014, 10.536110000000122], [42.68111000000016, 10.582780000000184], [42.66479, 10.632910000000152], [42.76416000000012, 10.78042], [42.83861, 10.87389], [42.9175, 10.95528000000013], [42.94409000000013, 11.00244], [42.89097, 10.98208000000011], [42.81097, 10.988330000000133], [42.76930000000016, 11.02319], [42.74819000000019, 11.07792000000012], [42.64041, 11.09708], [42.35889, 11.01916], [42.12555, 10.999440000000163], [42.01972, 10.944720000000189], [41.94028, 10.95], [41.83722, 10.973050000000114], [41.80833, 10.98528], [41.78972, 11.00805], [41.8005500000001, 11.03111], [41.81194000000016, 11.25792], [41.79375, 11.380970000000104], [41.759860000000174, 11.507920000000183], [41.82902000000013, 11.740970000000118], [41.891390000000115, 11.77361000000019], [41.94861, 11.816670000000158], [42.0586100000001, 11.97583], [42.12722, 12.09028000000012], [42.16889, 12.137220000000127], [42.25556, 12.26333], [42.30833000000018, 12.308330000000126], [42.33944, 12.39694], [42.39972, 12.469720000000166], [42.35073886500015, 12.517582657000048], [42.28026218500014, 12.556435585000088], [42.24238227500018, 12.615565613000058], [42.05023235800007, 12.84312590200011], [41.97255260900016, 12.983165899000142], [41.87868261600016, 13.089606055000047], [41.53122235100017, 13.43313676300005], [41.31370206000008, 13.630287251000084], [41.21587205100013, 13.747537406999982], [41.015591746999974, 13.932477847000143], [40.65053094300009, 14.229388753000023], [40.444510286000025, 14.363459338000155], [40.22258942100018, 14.478630022000175], [40.139918990000126, 14.498050334000084], [40.07530855800013, 14.493950612000162], [40.05525840200016, 14.486900711000146], [40.01021790500016, 14.439631002000112], [39.98425632200019, 14.432340698000132], [39.98085004700016, 14.440779718000101], [39.97135219000006, 14.42632820600005], [39.93846445600013, 14.40874957699998], [39.911406325000144, 14.422928815000091], [39.85661611400013, 14.472026032000144], [39.83131514100006, 14.484855217000188], [39.81318087400007, 14.48237148600009], [39.792610100000104, 14.500192012000014], [39.76678566700008, 14.540761419000034], [39.70933267900011, 14.551368027000137], [39.68028972600007, 14.588753205000046], [39.637687754000126, 14.598433770000156], [39.62268647900015, 14.635943927000028], [39.591224960000034, 14.662146833000179], [39.50267493900003, 14.67701014100004], [39.477534216000095, 14.60362931900005], [39.49167953, 14.582474713000124], [39.50038652500007, 14.543799707000119], [39.49325313200018, 14.509462223000128], [39.472642061000045, 14.4982511], [39.46932027900016, 14.515609184000027], [39.452093179000144, 14.510938678000116], [39.453263403000165, 14.526868381000043], [39.43547703300004, 14.51927040600009], [39.42821942900014, 14.53066994500017], [39.368698579000124, 14.53831389700008], [39.36464812000008, 14.50582138700014], [39.37114900600011, 14.494614944999967], [39.340012122000076, 14.511309453000024], [39.32404566700018, 14.498269948000143], [39.32998226900003, 14.480435911000086], [39.31384799400007, 14.478881045000037], [39.3163074150001, 14.45984050700008], [39.322358639000015, 14.459039095000037], [39.31991736500004, 14.44193865699998], [39.29771405500003, 14.436182551000172], [39.30083248300008, 14.41138907400017], [39.26072509400012, 14.393100468000057], [39.249747945000024, 14.39226004600016], [39.208486129000164, 14.49305225300003], [39.23145288300009, 14.51916675800004], [39.23863151300003, 14.565882257000055], [39.22153671300009, 14.572458615000073], [39.20032289200003, 14.611037689], [39.15745043300018, 14.620278210000151], [39.12466441900017, 14.613430921000145], [39.10438230400001, 14.630032119000077], [39.08073694700016, 14.63651403300014], [39.02351901500009, 14.632369865000044], [39.00846860800016, 14.616238802000055], [39.00996374400006, 14.590275806000022], [38.97473321600006, 14.541596849000086], [38.937267095000095, 14.532087065000155], [38.904877260000035, 14.501192779000121], [38.84839416800003, 14.495687701000122], [38.79404033700007, 14.463219068000114], [38.730547686000136, 14.458896300000049], [38.70294283800018, 14.465288096000052], [38.61577435800018, 14.433529122000095], [38.59437508300016, 14.43857619300013], [38.537352056000145, 14.420139784000128], [38.51585853800009, 14.405079012000158], [38.48369845900004, 14.418195981000167], [38.44741137800014, 14.410416756000188], [38.43217395800008, 14.427998714000069], [38.420781839000085, 14.463747722000164], [38.40151764000018, 14.46495725900013], [38.39480763600011, 14.481472588000145], [38.362233507999974, 14.486766175000184], [38.355919825000115, 14.506738546000065], [38.343208163000156, 14.507703961000118], [38.340943884000126, 14.522012228000108], [38.315242314000045, 14.550672305000148], [38.30792224900017, 14.585116137000057], [38.286081003000106, 14.607506376000117], [38.26450586900006, 14.614130603000149], [38.269062622000035, 14.634375875000103], [38.26108313100019, 14.667144], [38.228240227000015, 14.68577429700008], [38.187405288000036, 14.689155056000118], [38.17999939900005, 14.676574656000128], [38.15621349200012, 14.676451550000081], [38.13926619800014, 14.667294295000147], [38.09154474700006, 14.706628799000043], [38.040369254000154, 14.716603013], [38.018264385, 14.736637359000156], [38.02053812500003, 14.760782508000148], [37.99418999900013, 14.773459063000132], [37.98792226400013, 14.807947037000133], [37.97446577400018, 14.801627098000097], [37.97104799100009, 14.83044908800008], [37.94533225100008, 14.835183630000131], [37.940296291000095, 14.845476907000148], [37.90212812400017, 14.81003461600011], [37.875660503, 14.799868305000189], [37.84945360900008, 14.812515420000068], [37.8326223790001, 14.805154923000089], [37.78185992200008, 14.734886032000077], [37.77357345600018, 14.698207052000157], [37.78274168700017, 14.65372919500004], [37.77355448000003, 14.630389106000052], [37.74153494800015, 14.642437537000148], [37.7006296560001, 14.578851859000054], [37.67230469900011, 14.521704643000191], [37.67074345700007, 14.504168423000124], [37.595363754, 14.477582397000049], [37.57666723200009, 14.46791554400005], [37.57253101599997, 14.455381370000168], [37.54878978400012, 14.446135214000037], [37.488951343, 14.473108391999972], [37.44312556200009, 14.470585996000182], [37.42974504500012, 14.480212523000091], [37.40333828700011, 14.471358707999968], [37.369741702000056, 14.419258170000035], [37.345318520000035, 14.41577678800013], [37.3440310360001, 14.409044708000181], [37.299271658000066, 14.444641592000096], [37.247851065000134, 14.429494461000104], [37.22691160199997, 14.440399415000172], [37.21200163500009, 14.436939019000022], [37.19349177099997, 14.420412871999986], [37.15693821800005, 14.415751273000069], [37.12884488400016, 14.39903181], [37.099554390000094, 14.33326798600001], [37.103384651000056, 14.29076810600003], [37.09375511800005, 14.271675081000069], [37.06514290700011, 14.261925494000138], [37.043557621000105, 14.266419265000081], [37.0175166840001, 14.250591909000036], [36.990331588000174, 14.259755383000083], [36.96923397400019, 14.28708814600003], [36.94372560100004, 14.289098053000146], [36.863263550000056, 14.317819457000155], [36.83220887700003, 14.306866767000031], [36.82489103400019, 14.313709344000188], [36.74648375200019, 14.317707394000024], [36.685778599000116, 14.295905838000067], [36.628806866000104, 14.307589914000118], [36.614275634000194, 14.292427712000062], [36.55273739800009, 14.278901204000135], [36.44639, 13.95694], [36.486940000000175, 13.83944], [36.40902000000011, 13.6575], [36.41138000000018, 13.61555], [36.397499978000155, 13.567779972000153], [36.2486, 13.368060000000185], [36.15736000000015, 13.03306], [36.16888997400008, 12.989999974000114], [36.15111000000013, 12.971670000000131], [36.13534, 12.92541], [36.15916, 12.88139], [36.142539971000076, 12.714849979000121], [36.11194000100005, 12.694029999000179], [36.07229, 12.724100000000135], [36.03722, 12.715], [36.012630000000115, 12.72055], [35.96472000000011, 12.71556], [35.701080000000104, 12.66611998899998], [35.70013998000013, 12.624999971000136], [35.68623999200008, 12.602219999000056], [35.64735997899999, 12.59152997100017], [35.38359998100003, 12.165549971000189], [35.28387999800003, 11.983330002000173], [35.26108444900018, 11.927687256000013], [35.231380000000115, 11.898190000000113], [35.13444, 11.86389], [35.11625, 11.85083], [35.08361000000019, 11.80555], [35.05833000000018, 11.730280000000107], [35.0668, 11.646530000000155], [35.09166000000016, 11.598890000000154], [35.0952, 11.57646], [35.08749, 11.53583], [34.96708000000018, 11.27486000000016], [34.96416000000016, 11.25042000000019], [34.97111, 11.231110000000115], [35.0075, 11.19833], [35.00555000000014, 11.17444], [34.933330000000126, 10.95666], [34.97861000000012, 10.91528], [34.97527000000014, 10.864440000000116], [34.86062, 10.73201], [34.8005500000001, 10.72333], [34.67388, 10.83472], [34.59444, 10.88778], [34.439720000000136, 10.784440000000131], [34.35278, 10.63167], [34.28611, 10.55416], [34.34833, 10.238470000000177], [34.32305, 10.11722], [34.230550000000164, 10.02764000000019], [34.20722, 9.905], [34.14, 9.75805], [34.08583, 9.55305], [34.13499, 8.95528000000013], [34.12166, 8.579580000000135], [34.070830000000115, 8.52333], [33.97076, 8.43757], [33.8524900000001, 8.42583000000019], [33.81874, 8.41153], [33.77133, 8.36775], [33.71527, 8.375070000000107], [33.69048, 8.39548], [33.66999, 8.43708], [33.63437, 8.46715], [33.50861000000015, 8.466200000000129], [33.38083000000012, 8.43792], [33.26354, 8.46153], [33.17125000000016, 8.399790000000166], [33.16083, 8.35653], [33.18592000000018, 8.14029], [33.162770000000194, 8.115], [33.12138, 8.10097], [33.03194, 7.99739], [32.9918, 7.92604], [32.9968300000001, 7.88722], [33.01497000000012, 7.846060000000136], [33.05222, 7.79069], [33.46444, 7.74403], [33.71249, 7.658470000000136], [33.88555, 7.525420000000167], [34.02771000000013, 7.37868], [34.03278, 7.30444], [34.02708, 7.24812], [34.09916, 7.199720000000184], [34.163330000000144, 7.17167000000012], [34.19389, 7.09], [34.23569, 7.01972], [34.29957000000013, 6.964320000000157], [34.36097000000018, 6.959030000000155], [34.4718, 6.914310000000171], [34.52882, 6.74722], [34.55361, 6.73569], [34.63208, 6.729030000000137], [34.70472, 6.67778], [34.756990000000144, 6.613780000000133], [34.850000000000136, 6.366660000000138], [34.8593, 6.267220000000123], [34.87055, 6.237500000000125], [34.92243000000013, 6.13229], [34.96972000000011, 6.086530000000153], [34.981380000000115, 6.06111], [34.98782, 6.01394], [34.975830000000144, 5.96472], [34.98638000000011, 5.87805], [35.10541, 5.68833], [35.10388000000012, 5.632500000000107], [35.28999, 5.50778], [35.2927, 5.487640000000113], [35.27708000000018, 5.458050000000185]]]}}]}