{"type": "FeatureCollection", "features": [{"type": "Feature", "properties": {"pcode": "XK", "area_name": "Kamuntu", "parent_pcode": null, "level": "country"}, "geometry": {"type": "Polygon", "coordinates": [[[-16.483612125666706, -15.827029819440565], [-16.592127794779742, -15.659889916123033], [-16.669512410123343, -15.476251632989674], [-16.735764598997775, -15.289126315773796], [-16.805854290481637, -15.103404286866363], [-16.806113376214853, -14.89699463235696], [-16.83411343946166, -14.692492776477163], [-16.9377735463549, -14.513343320227555], [-17.07500469955938, -14.35839960132996], [-17.18651220892267, -14.18596136234714], [-17.322982363247604, -14.032518317909048], [-17.40900575121274, -13.84615663089244], [-17.520293414113045, -13.67368704589014], [-17.520004150026676, -13.466934468663819], [-17.493412114671457, -13.261898921699144], [-17.54356296479268, -13.061701032246066], [-17.58471497151764, -12.859461533008513], [-17.79159852996769, -13.0574604788542], [-17.976827575287693, -13.275851390026801], [-18.250265643473117, -13.359884077710552], [-18.519379391748263, -13.456877171390618], [-18.804097487627036, -13.489170989077115], [-19.08214983516362, -13.558410983379538], [-19.3020332316218, -13.74130633549882], [-19.530206456652454, -13.913748781677054], [-19.664785036575577, -13.649406558076539], [-19.68675869023112, -13.353593502419399], [-19.90107799964902, -13.15554402946897], [-20.07971168831433, -12.924792289715764], [-20.339487196776517, -12.798678538817482], [-20.60219640710866, -12.678795830435142], [-20.804044411559108, -12.47186217676213], [-20.985374762560298, -12.246732308177632], [-21.191483579090484, -12.03139251025149], [-21.420249524664726, -11.840295113702329], [-21.625747323123772, -11.624288139055201], [-21.804273285385065, -11.38550614838924], [-22.099938964886576, -11.449885922698677], [-22.40055416151681, -11.484432310790528], [-22.657264712177, -11.644070303020863], [-22.921179652521687, -11.791493163006855], [-23.141091464896313, -11.9139020446966], [-23.35269313380604, -12.050173366892594], [-23.501799505353834, -12.254233062265467], [-23.687284728235, -12.425896399657415], [-23.8763007393238, -12.587975154681105], [-24.06913432125738, -12.745492724991898], [-24.245044246733553, -12.921699906579635], [-24.417590793136988, -13.101201889990328], [-24.48626185428176, -13.232387703976558], [-24.564506143013656, -13.358098736550554], [-24.687016361668572, -13.441646096798086], [-24.81937561554536, -13.508503729065371], [-24.94759742750689, -13.572762546638758], [-25.082283141421374, -13.6220554179892], [-25.222441051893213, -13.654029887919064], [-25.35473068524298, -13.710297636259577], [-25.47321273638378, -13.792355238194931], [-25.610979221989357, -13.834685392007557], [-25.75314410778345, -13.847185350946688], [-25.892552986902476, -13.87771841743374], [-26.01842067259352, -13.947724799216052], [-26.15772228753912, -13.984312062915581], [-26.248354675311916, -14.09755134417134], [-26.371907746237532, -14.173525044868148], [-26.563013213618735, -14.333131134191936], [-26.722056947612806, -14.52470486435723], [-26.934577622242873, -14.652449607726636], [-27.14802812679181, -14.778634546255532], [-27.323435236764777, -14.951266767354241], [-27.495721207884973, -15.127013978272972], [-27.660339898613636, -15.309954566036934], [-27.82699492201969, -15.491042045345061], [-27.775895272753377, -15.74896093016385], [-27.73840442739178, -16.009206509982953], [-27.519263915719126, -16.155927367218993], [-27.32693227960091, -16.336366042542007], [-27.16223873859433, -16.52099721091009], [-26.99615868788347, -16.70438218177228], [-26.892219831430243, -16.92928607807973], [-26.765002649668205, -17.141890963065002], [-26.544726978451234, -17.203530095873248], [-26.316512004243698, -17.218979353813086], [-26.087597278217714, -17.236013779742176], [-25.86221714446435, -17.19247163041994], [-25.696858384722333, -17.357404285027737], [-25.54547635420055, -17.535251918732815], [-25.32752334490535, -17.619291045046552], [-25.102901653838796, -17.683409567446947], [-25.13311308591973, -17.916239106593245], [-25.183828688744853, -18.14547752518302], [-25.0980328697505, -18.364005570213667], [-25.031285141907198, -18.589083711865822], [-24.927557956201667, -18.796169162377954], [-24.835594535555224, -19.008740190815995], [-24.667667925367397, -19.16816022070236], [-24.494951968592787, -19.322378541966653], [-24.364045206210285, -19.525555586580232], [-24.198988207872695, -19.702116282079434], [-24.118591800030977, -19.929049187244143], [-24.045106922018395, -20.158313442076473], [-23.81608379041454, -20.22732785720215], [-23.60888015295667, -20.346831986540856], [-23.419363227870225, -20.4950306587497], [-23.193281497644666, -20.577289777374357], [-23.004982986878264, -20.434382290328692], [-22.83172911971805, -20.27356569751382], [-22.727333924307597, -20.06093976213625], [-22.590065563357584, -19.867896911188414], [-22.404645159082662, -19.71055298942159], [-22.21017235016635, -19.564545583340124], [-21.96676712259018, -19.55723829588892], [-21.725997934814973, -19.520773251265755], [-21.61615132190557, -19.277846097956214], [-21.450567295741433, -19.068892010984886], [-21.379099145495132, -18.810756640040353], [-21.231942937533393, -18.58695624528954], [-20.989432253120114, -18.45683881449729], [-20.770069687216584, -18.29064001025732], [-20.66861595442768, -18.03489905422463], [-20.530560233631846, -17.796913940310212], [-20.26715247752679, -17.7164185128002], [-19.997527368439368, -17.660156088608602], [-19.73057888272959, -17.72710147391436], [-19.46094946745482, -17.78226629109947], [-19.20138252879345, -17.851269254302593], [-18.957320906806643, -17.963386733983583], [-18.715025577073853, -18.077126510241627], [-18.46812802578218, -18.180496538198128], [-18.21571946177228, -18.246701621234628], [-17.95997668898329, -18.298555554273555], [-17.701282269918927, -18.33418409416286], [-17.440376320967598, -18.34515136873322], [-17.229979123295102, -18.186132021772146], [-17.050913819479526, -17.992509320453834], [-16.80264348626881, -17.901838969535632], [-16.58029381825958, -17.758940767922113], [-16.64718852193025, -17.519170548631276], [-16.71590506812814, -17.279916090539906], [-16.71653214818842, -17.030746671840138], [-16.739228343781956, -16.782612282546427], [-16.729973176224018, -16.532224727509167], [-16.675949952792024, -16.287559492598113], [-16.574490053660554, -16.059504408673664], [-16.483612125666706, -15.827029819440565]]]}}]}