{"type": "FeatureCollection", "features": [{"type": "Feature", "properties": {"pcode": "XK0101", "area_name": "Mkutani", "parent_pcode": "XK01", "level": "district"}, "geometry": {"type": "Polygon", "coordinates": [[[-27.541340212480268, -15.177710332842004], [-27.660339898613636, -15.309954566036934], [-27.82699492201969, -15.491042045345061], [-27.775895272753377, -15.74896093016385], [-27.73840442739178, -16.009206509982953], [-27.653118691, -16.066307756], [-27.556546384165067, -15.919063812819035], [-27.42815941502719, -15.802571306700667], [-27.32158109761798, -15.664998979754143], [-27.17221879, -15.56878083], [-27.286781243464453, -15.492044707100463], [-27.35905374766357, -15.375392184654357], [-27.456866322180744, -15.282846280186595], [-27.541340212480268, -15.177710332842004]]]}}, {"type": "Feature", "properties": {"pcode": "XK0102", "area_name": "Pembe", "parent_pcode": "XK01", "level": "district"}, "geometry": {"type": "Polygon", "coordinates": [[[-27.65311869123142, -16.066307756228774], [-27.519263915719126, -16.155927367218993], [-27.32693227960091, -16.336366042542007], [-27.323552269, -16.340155233], [-26.999931654488268, -16.102072585864], [-26.707560768, -15.976986161], [-26.74422679540813, -15.867109605434296], [-26.808079161933623, -15.773855087224408], [-26.89420591917065, -15.694219385173868], [-26.943068143, -15.591799723], [-26.999897615818696, -15.581483777363822], [-27.056354636913387, -15.567460114178774], [-27.116043383785826, -15.585607939557356], [-27.17221879, -15.56878083], [-27.32158109761798, -15.664998979754143], [-27.42815941502719, -15.802571306700667], [-27.556546384165067, -15.919063812819035], [-27.65311869123142, -16.066307756228774]]]}}, {"type": "Feature", "properties": {"pcode": "XK0103", "area_name": "Nyani", "parent_pcode": "XK01", "level": "district"}, "geometry": {"type": "Polygon", "coordinates": [[[-26.97361454177169, -14.675526954400096], [-27.14802812679181, -14.778634546255532], [-27.323435236764777, -14.951266767354241], [-27.495721207884973, -15.127013978272972], [-27.541340212, -15.177710333], [-27.456866322180744, -15.282846280186595], [-27.35905374766357, -15.375392184654357], [-27.286781243464453, -15.492044707100463], [-27.17221879, -15.56878083], [-27.116043383785826, -15.585607939557356], [-27.056354636913387, -15.567460114178774], [-26.999897615818696, -15.581483777363822], [-26.943068143, -15.591799723], [-26.90633893905917, -15.45458487053567], [-26.77322015341821, -15.374459828103854], [-26.733011226565925, -15.239305952733492], [-26.664256906, -15.121058999], [-26.74762968436674, -15.01386529109048], [-26.849045622476712, -14.919199950796218], [-26.91037854451416, -14.796702746924225], [-26.97361454177169, -14.675526954400096]]]}}, {"type": "Feature", "properties": {"pcode": "XK0104", "area_name": "Karamu", "parent_pcode": "XK01", "level": "district"}, "geometry": {"type": "Polygon", "coordinates": [[[-26.314608937466083, -14.138291581909494], [-26.371907746237532, -14.173525044868148], [-26.563013213618735, -14.333131134191936], [-26.722056947612806, -14.52470486435723], [-26.934577622242873, -14.652449607726636], [-26.973614542, -14.675526954], [-26.91037854451416, -14.796702746924225], [-26.849045622476712, -14.919199950796218], [-26.74762968436674, -15.01386529109048], [-26.664256906, -15.121058999], [-26.524681617366404, -15.13546391838322], [-26.38386196178295, -15.120282747303474], [-26.244869763065907, -15.148551222787338], [-26.104522471, -15.144600975], [-26.162373881776904, -14.894136323950217], [-26.308991121832992, -14.662203249276985], [-26.262338539909983, -14.389921377139993], [-26.314608937466083, -14.138291581909494]]]}}, {"type": "Feature", "properties": {"pcode": "XK0105", "area_name": "Mfumo", "parent_pcode": "XK01", "level": "district"}, "geometry": {"type": "Polygon", "coordinates": [[[-26.70756076765072, -15.97698616079308], [-26.635413050309186, -15.946118860232152], [-26.252744476710173, -15.826612828629202], [-25.906284803, -15.634394228], [-25.845465498, -15.296001555], [-25.908915957217047, -15.255903433705903], [-25.962608287875508, -15.199108472501864], [-26.049870489989612, -15.199753907386786], [-26.104522471, -15.144600975], [-26.244869763065907, -15.148551222787338], [-26.38386196178295, -15.120282747303474], [-26.524681617366404, -15.13546391838322], [-26.664256906, -15.121058999], [-26.733011226565925, -15.239305952733492], [-26.77322015341821, -15.374459828103854], [-26.90633893905917, -15.45458487053567], [-26.943068143, -15.591799723], [-26.89420591917065, -15.694219385173868], [-26.808079161933623, -15.773855087224408], [-26.74422679540813, -15.867109605434296], [-26.70756076765072, -15.97698616079308]]]}}, {"type": "Feature", "properties": {"pcode": "XK0106", "area_name": "Njia", "parent_pcode": "XK01", "level": "district"}, "geometry": {"type": "Polygon", "coordinates": [[[-25.7604115790486, -13.848777058625092], [-25.892552986902476, -13.87771841743374], [-26.01842067259352, -13.947724799216052], [-26.15772228753912, -13.984312062915581], [-26.248354675311916, -14.09755134417134], [-26.314608937, -14.138291582], [-26.262338539909983, -14.389921377139993], [-26.308991121832992, -14.662203249276985], [-26.162373881776904, -14.894136323950217], [-26.104522471, -15.144600975], [-26.049870489989612, -15.199753907386786], [-25.962608287875508, -15.199108472501864], [-25.908915957217047, -15.255903433705903], [-25.845465497956834, -15.296001555412095], [-25.826685849735384, -15.191513427055373], [-25.779257569201345, -14.746004492919079], [-25.673972206467894, -14.305222103340142], [-25.7604115790486, -13.848777058625092]]]}}, {"type": "Feature", "properties": {"pcode": "XK0201", "area_name": "Rafiki", "parent_pcode": "XK02", "level": "district"}, "geometry": {"type": "Polygon", "coordinates": [[[-27.323552269392472, -16.340155233241692], [-27.16223873859433, -16.52099721091009], [-26.99615868788347, -16.70438218177228], [-26.892219831430243, -16.92928607807973], [-26.769557734, -17.134278523], [-26.62098621458587, -16.894547297923072], [-26.390382885461143, -16.74157734432772], [-26.191133379082537, -16.555445894760773], [-25.977066078, -16.384986545], [-25.97778955397484, -16.212869419610865], [-26.055363539117177, -16.04596878438551], [-26.032455883411867, -15.87224761541483], [-26.023597166017367, -15.699480066170496], [-26.252744476710173, -15.826612828629202], [-26.635413050309186, -15.946118860232152], [-26.999931654488268, -16.102072585864], [-27.323552269392472, -16.340155233241692]]]}}, {"type": "Feature", "properties": {"pcode": "XK0202", "area_name": "Makali", "parent_pcode": "XK02", "level": "district"}, "geometry": {"type": "Polygon", "coordinates": [[[-26.76955773384572, -17.134278523186637], [-26.765002649668205, -17.141890963065002], [-26.544726978451234, -17.203530095873248], [-26.316512004243698, -17.218979353813086], [-26.087597278217714, -17.236013779742176], [-25.86221714446435, -17.19247163041994], [-25.697023494, -17.357239601], [-25.63313316293781, -17.232758121001577], [-25.55125219861672, -17.11735289611069], [-25.512016520497042, -16.980433170249896], [-25.444936197, -16.857561038], [-25.552481957903385, -16.71071878667636], [-25.722544470269867, -16.63427185293616], [-25.828564735217007, -16.48571185765111], [-25.977066078, -16.384986545], [-26.191133379082537, -16.555445894760773], [-26.390382885461143, -16.74157734432772], [-26.62098621458587, -16.894547297923072], [-26.76955773384572, -17.134278523186637]]]}}, {"type": "Feature", "properties": {"pcode": "XK0203", "area_name": "Simba", "parent_pcode": "XK02", "level": "district"}, "geometry": {"type": "Polygon", "coordinates": [[[-25.444936197, -16.857561038], [-25.315509711758992, -16.787601847299282], [-25.165462617305224, -16.799139433816876], [-25.02625535686672, -16.767835825454604], [-24.891835009729355, -16.717613376178985], [-24.842681611, -16.411544026], [-25.067643447281025, -16.161227725339614], [-25.308384853777405, -15.932507262820895], [-25.643712666579617, -15.83323726651293], [-25.906284803, -15.634394228], [-26.023597166, -15.699480066], [-26.032455883411867, -15.87224761541483], [-26.055363539117177, -16.04596878438551], [-25.97778955397484, -16.212869419610865], [-25.977066078, -16.384986545], [-25.828564735217007, -16.48571185765111], [-25.722544470269867, -16.63427185293616], [-25.552481957903385, -16.71071878667636], [-25.444936197, -16.857561038]]]}}, {"type": "Feature", "properties": {"pcode": "XK0204", "area_name": "Ndoto", "parent_pcode": "XK02", "level": "district"}, "geometry": {"type": "Polygon", "coordinates": [[[-25.69702349381851, -17.35723960139335], [-25.696858384722333, -17.357404285027737], [-25.54547635420055, -17.535251918732815], [-25.32752334490535, -17.619291045046552], [-25.102901653838796, -17.683409567446947], [-25.13311308591973, -17.916239106593245], [-25.183828688744853, -18.14547752518302], [-25.168668496, -18.184091613], [-25.08919592906502, -18.066007389329418], [-24.954766055572495, -18.003532798382363], [-24.84706344054103, -17.91401370471445], [-24.771695922, -17.791775707], [-24.845778134420666, -17.449615151689287], [-24.92819874143654, -17.107883442269916], [-24.898705709407373, -16.76039598409802], [-24.89183501, -16.717613376], [-25.02625535686672, -16.767835825454604], [-25.165462617305224, -16.799139433816876], [-25.315509711758992, -16.787601847299282], [-25.444936197, -16.857561038], [-25.512016520497042, -16.980433170249896], [-25.55125219861672, -17.11735289611069], [-25.63313316293781, -17.232758121001577], [-25.69702349381851, -17.35723960139335]]]}}, {"type": "Feature", "properties": {"pcode": "XK0301", "area_name": "Baraka", "parent_pcode": "XK03", "level": "district"}, "geometry": {"type": "Polygon", "coordinates": [[[-24.981422439555445, -13.585141973668378], [-25.082283141421374, -13.6220554179892], [-25.222441051893213, -13.654029887919064], [-25.35473068524298, -13.710297636259577], [-25.47321273638378, -13.792355238194931], [-25.610979221989357, -13.834685392007557], [-25.75314410778345, -13.847185350946688], [-25.760411579, -13.848777059], [-25.673972206467894, -14.305222103340142], [-25.779257569201345, -14.746004492919079], [-25.814494865, -15.076999623], [-25.607845137729466, -15.093023108999185], [-25.404147962905324, -15.083531955903124], [-25.20901390293175, -15.000042190111733], [-25.006137698, -14.983456582], [-24.958991737753294, -14.711602326687231], [-24.860174875449292, -14.453387325876516], [-24.730399710963965, -14.203344200252623], [-24.72551201989498, -13.920335286206047], [-24.981422439555445, -13.585141973668378]]]}}, {"type": "Feature", "properties": {"pcode": "XK0302", "area_name": "Mapema", "parent_pcode": "XK03", "level": "district"}, "geometry": {"type": "Polygon", "coordinates": [[[-25.814494864567436, -15.076999623327119], [-25.826685849735384, -15.191513427055373], [-25.906284803, -15.634394228], [-25.643712666579617, -15.83323726651293], [-25.308384853777405, -15.932507262820895], [-25.067643447281025, -16.161227725339614], [-24.842681611, -16.411544026], [-24.537722018, -16.011343865], [-24.56872354573051, -15.770078616937012], [-24.709187998372013, -15.56444589969716], [-24.71581304050795, -15.315245582522738], [-24.833652271, -15.10224787], [-24.876226549873767, -15.07175568872776], [-24.915827097252073, -15.036945637387662], [-24.967393499186446, -15.019510054893477], [-25.006137698, -14.983456582], [-25.20901390293175, -15.000042190111733], [-25.404147962905324, -15.083531955903124], [-25.607845137729466, -15.093023108999185], [-25.814494864567436, -15.076999623327119]]]}}, {"type": "Feature", "properties": {"pcode": "XK0303", "area_name": "Asilani", "parent_pcode": "XK03", "level": "district"}, "geometry": {"type": "Polygon", "coordinates": [[[-25.006137698, -14.983456582], [-24.967393499186446, -15.019510054893477], [-24.915827097252073, -15.036945637387662], [-24.876226549873767, -15.07175568872776], [-24.833652271, -15.10224787], [-24.48414748357489, -15.09678240716489], [-24.14382539055612, -15.055501894531657], [-23.86111868483767, -14.789505424469397], [-23.516606413415275, -14.764567768762978], [-23.856547425620242, -14.62906857772163], [-24.093276350241275, -14.100879368285517], [-24.661235719874195, -14.004524847343166], [-24.72551202, -13.920335286], [-24.730399710963965, -14.203344200252623], [-24.860174875449292, -14.453387325876516], [-24.958991737753294, -14.711602326687231], [-25.006137698, -14.983456582]]]}}, {"type": "Feature", "properties": {"pcode": "XK0304", "area_name": "Sihaya", "parent_pcode": "XK03", "level": "district"}, "geometry": {"type": "Polygon", "coordinates": [[[-24.833652271, -15.10224787], [-24.71581304050795, -15.315245582522738], [-24.709187998372013, -15.56444589969716], [-24.56872354573051, -15.770078616937012], [-24.537722017517112, -16.011343865432224], [-24.515774766211006, -15.982542366202726], [-23.95657493092097, -15.77802370591855], [-23.80909752260333, -15.175625259532247], [-23.353717499, -14.870777344], [-23.353323838681156, -14.858546291433349], [-23.360085817856383, -14.84807494200453], [-23.36322868701933, -14.836713586972431], [-23.36497295, -14.825008289], [-23.516606413, -14.764567769], [-23.86111868483767, -14.789505424469397], [-24.14382539055612, -15.055501894531657], [-24.48414748357489, -15.09678240716489], [-24.833652271, -15.10224787]]]}}, {"type": "Feature", "properties": {"pcode": "XK0401", "area_name": "Zawadi", "parent_pcode": "XK04", "level": "district"}, "geometry": {"type": "Polygon", "coordinates": [[[-25.168668496014664, -18.184091612890885], [-25.0980328697505, -18.364005570213667], [-25.031285141907198, -18.589083711865822], [-25.026842186, -18.597953822], [-24.688132405242275, -18.672967185438598], [-24.351224675553716, -18.691148746563275], [-24.020373846679327, -18.518312086507898], [-23.682868577, -18.555338438], [-23.675016467869156, -18.343897591885163], [-23.636058837485116, -18.138719741480248], [-23.612650453411906, -17.93041110081644], [-23.517987898757365, -17.736449256050154], [-23.898858646954775, -17.65632207451219], [-24.33450405724333, -17.7633986604149], [-24.771695922, -17.791775707], [-24.84706344054103, -17.91401370471445], [-24.954766055572495, -18.003532798382363], [-25.08919592906502, -18.066007389329418], [-25.168668496014664, -18.184091612890885]]]}}, {"type": "Feature", "properties": {"pcode": "XK0402", "area_name": "Tunza", "parent_pcode": "XK04", "level": "district"}, "geometry": {"type": "Polygon", "coordinates": [[[-25.026842185832415, -18.597953821992633], [-24.927557956201667, -18.796169162377954], [-24.835594535555224, -19.008740190815995], [-24.667667925367397, -19.16816022070236], [-24.494951968592787, -19.322378541966653], [-24.364045206210285, -19.525555586580232], [-24.198988207872695, -19.702116282079434], [-24.118591800030977, -19.929049187244143], [-24.057455423, -20.11978756], [-24.04540419668456, -20.106078188790196], [-24.043249337124458, -20.085998138656173], [-24.027150589536014, -20.07489431543248], [-24.018373727, -20.059077108], [-23.838040346727173, -19.72257984025531], [-23.916626544953953, -19.319578303143764], [-23.70538569914831, -18.991019710508745], [-23.649405635, -18.622581921], [-23.65426255169678, -18.604024927133494], [-23.66924625900561, -18.590507413552345], [-23.678627435914063, -18.574201865481054], [-23.682868577, -18.555338438], [-24.020373846679327, -18.518312086507898], [-24.351224675553716, -18.691148746563275], [-24.688132405242275, -18.672967185438598], [-25.026842185832415, -18.597953821992633]]]}}, {"type": "Feature", "properties": {"pcode": "XK0403", "area_name": "Nyada", "parent_pcode": "XK04", "level": "district"}, "geometry": {"type": "Polygon", "coordinates": [[[-22.429477264, -19.107521975], [-22.72106351715739, -18.95258802358469], [-23.045088744847188, -18.87925843755809], [-23.357088209794387, -18.775676516151886], [-23.649405635, -18.622581921], [-23.70538569914831, -18.991019710508745], [-23.916626544953953, -19.319578303143764], [-23.838040346727173, -19.72257984025531], [-24.018373727, -20.059077108], [-23.66532773939953, -19.747420164478044], [-23.29464921426814, -19.465205841299333], [-22.89097656882823, -19.238084743137165], [-22.429477264, -19.107521975]]]}}, {"type": "Feature", "properties": {"pcode": "XK0404", "area_name": "Mbitu", "parent_pcode": "XK04", "level": "district"}, "geometry": {"type": "Polygon", "coordinates": [[[-22.176701647815786, -19.10700991105094], [-22.414961302276744, -18.63794660587261], [-22.603102460674723, -18.12113174631994], [-23.021373861, -17.757381689], [-23.459292015417308, -17.748797633346594], [-23.517987899, -17.736449256], [-23.612650453411906, -17.93041110081644], [-23.636058837485116, -18.138719741480248], [-23.675016467869156, -18.343897591885163], [-23.682868577, -18.555338438], [-23.678627435914063, -18.574201865481054], [-23.66924625900561, -18.590507413552345], [-23.65426255169678, -18.604024927133494], [-23.649405635, -18.622581921], [-23.357088209794387, -18.775676516151886], [-23.045088744847188, -18.87925843755809], [-22.72106351715739, -18.95258802358469], [-22.429477264, -19.107521975], [-22.366311499652177, -19.093503082248105], [-22.30307314839824, -19.115316038458047], [-22.23991031272263, -19.099851433994157], [-22.176701647815786, -19.10700991105094]]]}}, {"type": "Feature", "properties": {"pcode": "XK0405", "area_name": "Nditi", "parent_pcode": "XK04", "level": "district"}, "geometry": {"type": "Polygon", "coordinates": [[[-24.057455422551, -20.119787559616412], [-24.045106922018395, -20.158313442076473], [-23.81608379041454, -20.22732785720215], [-23.60888015295667, -20.346831986540856], [-23.419363227870225, -20.4950306587497], [-23.193281497644666, -20.577289777374357], [-23.004982986878264, -20.434382290328692], [-22.83172911971805, -20.27356569751382], [-22.727333924307597, -20.06093976213625], [-22.590065563357584, -19.867896911188414], [-22.404645159082662, -19.71055298942159], [-22.21017235016635, -19.564545583340124], [-21.96676712259018, -19.55723829588892], [-21.837291383, -19.537628899], [-22.171228014007013, -19.117785888928893], [-22.176701648, -19.107009911], [-22.23991031272263, -19.099851433994157], [-22.30307314839824, -19.115316038458047], [-22.366311499652177, -19.093503082248105], [-22.429477264, -19.107521975], [-22.89097656882823, -19.238084743137165], [-23.29464921426814, -19.465205841299333], [-23.66532773939953, -19.747420164478044], [-24.018373727, -20.059077108], [-24.027150589536014, -20.07489431543248], [-24.043249337124458, -20.085998138656173], [-24.04540419668456, -20.106078188790196], [-24.057455422551, -20.119787559616412]]]}}, {"type": "Feature", "properties": {"pcode": "XK0501", "area_name": "Kane", "parent_pcode": "XK05", "level": "district"}, "geometry": {"type": "Polygon", "coordinates": [[[-24.771695922, -17.791775707], [-24.33450405724333, -17.7633986604149], [-24.008099135, -17.683172119], [-24.05143032276571, -17.369733616069684], [-23.86882173544484, -17.08750204256047], [-23.822750455696266, -16.78641185896756], [-23.841416345, -16.476380141], [-24.027031747897546, -16.374844646742204], [-24.24666445438771, -16.336637075513742], [-24.42378337023798, -16.219284193605446], [-24.58692965049481, -16.07591931424472], [-24.842681611, -16.411544026], [-24.898705709407373, -16.76039598409802], [-24.92819874143654, -17.107883442269916], [-24.845778134420666, -17.449615151689287], [-24.771695922, -17.791775707]]]}}, {"type": "Feature", "properties": {"pcode": "XK0502", "area_name": "Nyamamwa", "parent_pcode": "XK05", "level": "district"}, "geometry": {"type": "Polygon", "coordinates": [[[-23.389244033052883, -14.89456009530826], [-23.80909752260333, -15.175625259532247], [-23.95657493092097, -15.77802370591855], [-24.515774766211006, -15.982542366202726], [-24.58692965, -16.075919314], [-24.42378337023798, -16.219284193605446], [-24.24666445438771, -16.336637075513742], [-24.027031747897546, -16.374844646742204], [-23.841416345, -16.476380141], [-23.757543265469746, -16.461917806794183], [-23.67072189278643, -16.462220648590886], [-23.5923691181326, -16.420112395591882], [-23.507679378, -16.409739932], [-23.483416477948452, -16.38205904113052], [-23.459953883539317, -16.35347088277342], [-23.419162005758487, -16.344528088079635], [-23.398169026, -16.313140248], [-23.30929777195613, -15.95904030510016], [-23.459291109291037, -15.60343754630268], [-23.383627084367312, -15.249254510158377], [-23.389244033052883, -14.89456009530826]]]}}, {"type": "Feature", "properties": {"pcode": "XK0503", "area_name": "Chota", "parent_pcode": "XK05", "level": "district"}, "geometry": {"type": "Polygon", "coordinates": [[[-24.008099135151113, -17.683172118704466], [-23.898858646954775, -17.65632207451219], [-23.459292015417308, -17.748797633346594], [-23.021373861, -17.757381689], [-22.821340858, -17.39091227], [-23.009594240534096, -17.157279121783795], [-23.1581316809549, -16.895864329227706], [-23.272052734472357, -16.610235075220917], [-23.507679378, -16.409739932], [-23.5923691181326, -16.420112395591882], [-23.67072189278643, -16.462220648590886], [-23.757543265469746, -16.461917806794183], [-23.841416345, -16.476380141], [-23.822750455696266, -16.78641185896756], [-23.86882173544484, -17.08750204256047], [-24.05143032276571, -17.369733616069684], [-24.008099135151113, -17.683172118704466]]]}}, {"type": "Feature", "properties": {"pcode": "XK0504", "area_name": "Wika", "parent_pcode": "XK05", "level": "district"}, "geometry": {"type": "Polygon", "coordinates": [[[-22.565990372384253, -15.715005253252613], [-22.769279208215476, -15.542169608115504], [-23.01830763910882, -15.160552071653598], [-23.353717499, -14.870777344], [-23.389244033, -14.894560095], [-23.383627084367312, -15.249254510158377], [-23.459291109291037, -15.60343754630268], [-23.30929777195613, -15.95904030510016], [-23.398169026, -16.313140248], [-23.292111682545787, -16.282807989856682], [-23.179638697132773, -16.283547442679566], [-23.071519286707925, -16.2632020181713], [-22.967258967, -16.224166562], [-22.85789036861485, -16.10400965673947], [-22.78603160357517, -15.954291357360486], [-22.68673748940926, -15.82619477943327], [-22.565990372384253, -15.715005253252613]]]}}, {"type": "Feature", "properties": {"pcode": "XK0505", "area_name": "Fenji", "parent_pcode": "XK05", "level": "district"}, "geometry": {"type": "Polygon", "coordinates": [[[-22.821340858410053, -17.39091226965924], [-22.79041064243224, -17.334246728759922], [-22.439009328735356, -16.98007923013359], [-22.3849112, -16.681087399], [-22.549635149968413, -16.591247397200863], [-22.634606962200465, -16.39976291880229], [-22.818326704379285, -16.33413314398417], [-22.967258967, -16.224166562], [-23.071519286707925, -16.2632020181713], [-23.179638697132773, -16.283547442679566], [-23.292111682545787, -16.282807989856682], [-23.398169026, -16.313140248], [-23.419162005758487, -16.344528088079635], [-23.459953883539317, -16.35347088277342], [-23.483416477948452, -16.38205904113052], [-23.507679378, -16.409739932], [-23.272052734472357, -16.610235075220917], [-23.1581316809549, -16.895864329227706], [-23.009594240534096, -17.157279121783795], [-22.821340858410053, -17.39091226965924]]]}}, {"type": "Feature", "properties": {"pcode": "XK0506", "area_name": "Yiweha", "parent_pcode": "XK05", "level": "district"}, "geometry": {"type": "Polygon", "coordinates": [[[-22.38491119995784, -16.681087398959743], [-22.34795348833696, -16.47682795185451], [-22.063362012, -16.084402584], [-22.43145998478857, -15.829382642623612], [-22.565990372, -15.715005253], [-22.68673748940926, -15.82619477943327], [-22.78603160357517, -15.954291357360486], [-22.85789036861485, -16.10400965673947], [-22.967258967, -16.224166562], [-22.818326704379285, -16.33413314398417], [-22.634606962200465, -16.39976291880229], [-22.549635149968413, -16.591247397200863], [-22.38491119995784, -16.681087398959743]]]}}, {"type": "Feature", "properties": {"pcode": "XK0601", "area_name": "Lumwi", "parent_pcode": "XK06", "level": "district"}, "geometry": {"type": "Polygon", "coordinates": [[[-24.205933181558322, -12.882522750743963], [-24.245044246733553, -12.921699906579635], [-24.417590793136988, -13.101201889990328], [-24.48626185428176, -13.232387703976558], [-24.564506143013656, -13.358098736550554], [-24.687016361668572, -13.441646096798086], [-24.81937561554536, -13.508503729065371], [-24.94759742750689, -13.572762546638758], [-24.98142244, -13.585141974], [-24.661235719874195, -14.004524847343166], [-24.093276350241275, -14.100879368285517], [-23.856547425620242, -14.62906857772163], [-23.36497295, -14.825008289], [-23.038654596, -14.259232761], [-23.296312284870627, -13.955015786670238], [-23.58341469828989, -13.673060931028617], [-23.787295422636586, -13.32818508875998], [-23.998912846, -12.989158692], [-24.049414368753705, -12.960066074449571], [-24.097200205791033, -12.925701292896992], [-24.161023987500215, -12.92247217408234], [-24.205933181558322, -12.882522750743963]]]}}, {"type": "Feature", "properties": {"pcode": "XK0602", "area_name": "Mbiri", "parent_pcode": "XK06", "level": "district"}, "geometry": {"type": "Polygon", "coordinates": [[[-22.856906651837168, -11.755590271081076], [-22.921179652521687, -11.791493163006855], [-23.141091464896313, -11.9139020446966], [-23.35269313380604, -12.050173366892594], [-23.501799505353834, -12.254233062265467], [-23.687284728235, -12.425896399657415], [-23.8763007393238, -12.587975154681105], [-24.06913432125738, -12.745492724991898], [-24.205933182, -12.882522751], [-24.161023987500215, -12.92247217408234], [-24.097200205791033, -12.925701292896992], [-24.049414368753705, -12.960066074449571], [-23.998912846, -12.989158692], [-23.615183078962346, -12.961449885212867], [-23.226997853731095, -12.983317157776266], [-22.85341195107952, -12.842737125657287], [-22.466410635, -12.851430989], [-22.538930083995915, -12.568524957539719], [-22.597288477848736, -12.28057272224793], [-22.824347104757127, -12.05273576465398], [-22.856906651837168, -11.755590271081076]]]}}, {"type": "Feature", "properties": {"pcode": "XK0603", "area_name": "Njuda", "parent_pcode": "XK06", "level": "district"}, "geometry": {"type": "Polygon", "coordinates": [[[-23.038654596034082, -14.259232760741808], [-22.918623577316634, -14.051121227336221], [-22.306109954235193, -13.408596522556277], [-22.158100067, -13.119167682], [-22.253309755185406, -13.073113356767042], [-22.28862839353112, -12.95809185565957], [-22.387958385084648, -12.916782240826679], [-22.466410635, -12.851430989], [-22.85341195107952, -12.842737125657287], [-23.226997853731095, -12.983317157776266], [-23.615183078962346, -12.961449885212867], [-23.998912846, -12.989158692], [-23.787295422636586, -13.32818508875998], [-23.58341469828989, -13.673060931028617], [-23.296312284870627, -13.955015786670238], [-23.038654596034082, -14.259232760741808]]]}}, {"type": "Feature", "properties": {"pcode": "XK0604", "area_name": "Neka", "parent_pcode": "XK06", "level": "district"}, "geometry": {"type": "Polygon", "coordinates": [[[-21.172302529243886, -12.051432620458868], [-21.191483579090484, -12.03139251025149], [-21.420249524664726, -11.840295113702329], [-21.625747323123772, -11.624288139055201], [-21.804273285385065, -11.38550614838924], [-22.099938964886576, -11.449885922698677], [-22.40055416151681, -11.484432310790528], [-22.657264712177, -11.644070303020863], [-22.856906652, -11.755590271], [-22.824347104757127, -12.05273576465398], [-22.597288477848736, -12.28057272224793], [-22.538930083995915, -12.568524957539719], [-22.466410635, -12.851430989], [-22.387958385084648, -12.916782240826679], [-22.28862839353112, -12.95809185565957], [-22.253309755185406, -13.073113356767042], [-22.158100066794653, -13.119167682405662], [-21.895789209575163, -12.606226766924944], [-21.172302529243886, -12.051432620458868]]]}}, {"type": "Feature", "properties": {"pcode": "XK0701", "area_name": "Shamba", "parent_pcode": "XK07", "level": "district"}, "geometry": {"type": "Polygon", "coordinates": [[[-22.063362012, -16.084402584], [-22.34795348833696, -16.47682795185451], [-22.439009328735356, -16.98007923013359], [-22.79041064243224, -17.334246728759922], [-23.021373861, -17.757381689], [-22.78137169, -17.966099769], [-22.435996608520057, -17.72817260377438], [-21.976585443216322, -17.81627616799273], [-21.63074104142531, -17.579690795980536], [-21.253865945, -17.431822606], [-21.356076176310864, -17.095599735932456], [-21.40530715991561, -16.754652619298206], [-21.384616652987695, -16.407470488467077], [-21.3760713339763, -16.061371363773947], [-21.686679294285188, -16.14867250519706], [-22.063362012, -16.084402584]]]}}, {"type": "Feature", "properties": {"pcode": "XK0702", "area_name": "Njepe", "parent_pcode": "XK07", "level": "district"}, "geometry": {"type": "Polygon", "coordinates": [[[-22.78137168957874, -17.966099769039662], [-22.603102460674723, -18.12113174631994], [-22.414961302276744, -18.63794660587261], [-22.171228014007013, -19.117785888928893], [-21.83729138272498, -19.53762889870887], [-21.725997934814973, -19.520773251265755], [-21.61615132190557, -19.277846097956214], [-21.450567295741433, -19.068892010984886], [-21.379099145495132, -18.810756640040353], [-21.231942937533393, -18.58695624528954], [-20.989432253120114, -18.45683881449729], [-20.770069687216584, -18.29064001025732], [-20.66861595442768, -18.03489905422463], [-20.612366075, -17.937933613], [-20.77182472625564, -17.810244422862954], [-20.891126512557328, -17.631656075641253], [-21.068057465792634, -17.526113172175574], [-21.253865945, -17.431822606], [-21.63074104142531, -17.579690795980536], [-21.976585443216322, -17.81627616799273], [-22.435996608520057, -17.72817260377438], [-22.78137168957874, -17.966099769039662]]]}}, {"type": "Feature", "properties": {"pcode": "XK0703", "area_name": "Vuya", "parent_pcode": "XK07", "level": "district"}, "geometry": {"type": "Polygon", "coordinates": [[[-20.61236607535861, -17.937933613019037], [-20.530560233631846, -17.796913940310212], [-20.26715247752679, -17.7164185128002], [-19.997527368439368, -17.660156088608602], [-19.73057888272959, -17.72710147391436], [-19.46094946745482, -17.78226629109947], [-19.327597329, -17.817716464], [-19.763514510547715, -17.457969512945244], [-19.771616472939503, -16.80143221057575], [-20.229402718728274, -16.456856592770503], [-20.568053541, -16.029632573], [-20.941044762300844, -16.066146379205755], [-21.316165031955578, -16.044533776805327], [-21.376071334, -16.061371364], [-21.384616652987695, -16.407470488467077], [-21.40530715991561, -16.754652619298206], [-21.356076176310864, -17.095599735932456], [-21.253865945, -17.431822606], [-21.068057465792634, -17.526113172175574], [-20.891126512557328, -17.631656075641253], [-20.77182472625564, -17.810244422862954], [-20.61236607535861, -17.937933613019037]]]}}, {"type": "Feature", "properties": {"pcode": "XK0801", "area_name": "Ndundi", "parent_pcode": "XK08", "level": "district"}, "geometry": {"type": "Polygon", "coordinates": [[[-22.776029820735335, -13.901540862266232], [-22.918623577316634, -14.051121227336221], [-23.36497295, -14.825008289], [-23.36322868701933, -14.836713586972431], [-23.360085817856383, -14.84807494200453], [-23.353323838681156, -14.858546291433349], [-23.353717499, -14.870777344], [-23.01830763910882, -15.160552071653598], [-22.769279208215476, -15.542169608115504], [-22.43145998478857, -15.829382642623612], [-22.268022331, -15.942612989], [-22.191900512171987, -15.809130550506183], [-22.095816077403455, -15.684295902795435], [-22.099458311400475, -15.51625973432475], [-22.025159757, -15.381987459], [-22.179281005158327, -14.994836065232663], [-22.25940496273596, -14.57015386797215], [-22.497608333516183, -14.225648219699652], [-22.776029820735335, -13.901540862266232]]]}}, {"type": "Feature", "properties": {"pcode": "XK0802", "area_name": "Levano", "parent_pcode": "XK08", "level": "district"}, "geometry": {"type": "Polygon", "coordinates": [[[-22.291601245805367, -13.38022518381977], [-22.306109954235193, -13.408596522556277], [-22.776029821, -13.901540862], [-22.497608333516183, -14.225648219699652], [-22.25940496273596, -14.57015386797215], [-22.179281005158327, -14.994836065232663], [-22.025159757, -15.381987459], [-21.793498406413725, -15.250642840154054], [-21.58039678003357, -15.095474891279009], [-21.37741664205089, -14.92731496279259], [-21.193794612, -14.734306896], [-21.2288781247974, -14.56540442371275], [-21.273236138684506, -14.397446752472035], [-21.237949993708874, -14.221375665327194], [-21.263354022, -14.051487136], [-21.53424273064384, -13.904851865674614], [-21.745871676769195, -13.667441770226215], [-22.01832391924893, -13.523201540051105], [-22.291601245805367, -13.38022518381977]]]}}, {"type": "Feature", "properties": {"pcode": "XK0803", "area_name": "Kinji", "parent_pcode": "XK08", "level": "district"}, "geometry": {"type": "Polygon", "coordinates": [[[-22.2680223312392, -15.9426129886402], [-22.063362012, -16.084402584], [-21.686679294285188, -16.14867250519706], [-21.316165031955578, -16.044533776805327], [-20.941044762300844, -16.066146379205755], [-20.568053541, -16.029632573], [-20.302059030968117, -15.4511721648179], [-20.221689653, -15.340076392], [-20.49109222822246, -15.23096128386983], [-20.696770327319644, -15.019584705559824], [-20.932154876423333, -14.855879374409502], [-21.193794612, -14.734306896], [-21.37741664205089, -14.92731496279259], [-21.58039678003357, -15.095474891279009], [-21.793498406413725, -15.250642840154054], [-22.025159757, -15.381987459], [-22.099458311400475, -15.51625973432475], [-22.095816077403455, -15.684295902795435], [-22.191900512171987, -15.809130550506183], [-22.2680223312392, -15.9426129886402]]]}}, {"type": "Feature", "properties": {"pcode": "XK0804", "area_name": "Vengu", "parent_pcode": "XK08", "level": "district"}, "geometry": {"type": "Polygon", "coordinates": [[[-19.821728411149707, -13.228869873154288], [-19.90107799964902, -13.15554402946897], [-20.07971168831433, -12.924792289715764], [-20.339487196776517, -12.798678538817482], [-20.60219640710866, -12.678795830435142], [-20.804044411559108, -12.47186217676213], [-20.985374762560298, -12.246732308177632], [-21.172302529, -12.05143262], [-21.895789209575163, -12.606226766924944], [-22.291601246, -13.380225184], [-22.01832391924893, -13.523201540051105], [-21.745871676769195, -13.667441770226215], [-21.53424273064384, -13.904851865674614], [-21.263354022, -14.051487136], [-20.850872141792646, -13.937094389128085], [-20.487159314520543, -13.737234537567316], [-20.155829348143428, -13.480624160916177], [-19.821728411149707, -13.228869873154288]]]}}, {"type": "Feature", "properties": {"pcode": "XK0805", "area_name": "Muje", "parent_pcode": "XK08", "level": "district"}, "geometry": {"type": "Polygon", "coordinates": [[[-19.661611396332322, -13.65564029244414], [-19.664785036575577, -13.649406558076539], [-19.68675869023112, -13.353593502419399], [-19.821728411, -13.228869873], [-20.155829348143428, -13.480624160916177], [-20.487159314520543, -13.737234537567316], [-20.850872141792646, -13.937094389128085], [-21.263354022, -14.051487136], [-21.237949993708874, -14.221375665327194], [-21.273236138684506, -14.397446752472035], [-21.2288781247974, -14.56540442371275], [-21.193794612, -14.734306896], [-20.932154876423333, -14.855879374409502], [-20.696770327319644, -15.019584705559824], [-20.49109222822246, -15.23096128386983], [-20.221689652691936, -15.340076391857538], [-19.916588346537555, -14.918330371601431], [-19.925927466917493, -14.234741564924283], [-19.661611396332322, -13.65564029244414]]]}}, {"type": "Feature", "properties": {"pcode": "XK0901", "area_name": "Gina", "parent_pcode": "XK09", "level": "district"}, "geometry": {"type": "Polygon", "coordinates": [[[-19.455015838740913, -13.856923297089292], [-19.530206456652454, -13.913748781677054], [-19.661611396, -13.655640292], [-19.925927466917493, -14.234741564924283], [-19.916588346537555, -14.918330371601431], [-20.302059030968117, -15.4511721648179], [-20.568053541, -16.029632573], [-20.229402718728274, -16.456856592770503], [-20.07961835, -16.569599258], [-19.834648255702046, -16.395600398070563], [-19.513960809259252, -16.386760486149253], [-19.270518851571712, -16.209428368679237], [-19.006254931, -16.077514288], [-18.991081124736098, -15.768041991235636], [-18.848820129320185, -15.478607290420884], [-18.885993252535446, -15.160881552620449], [-18.814341281, -14.860314061], [-18.99484855845271, -14.62245278401554], [-19.090635547050127, -14.330496795814469], [-19.342225085306474, -14.138022219262119], [-19.455015838740913, -13.856923297089292]]]}}, {"type": "Feature", "properties": {"pcode": "XK0902", "area_name": "Ziwo", "parent_pcode": "XK09", "level": "district"}, "geometry": {"type": "Polygon", "coordinates": [[[-20.079618350056563, -16.569599257818677], [-19.771616472939503, -16.80143221057575], [-19.763514510547715, -17.457969512945244], [-19.327597328651535, -17.817716463507235], [-19.20138252879345, -17.851269254302593], [-18.957320906806643, -17.963386733983583], [-18.715025577073853, -18.077126510241627], [-18.46812802578218, -18.180496538198128], [-18.278898221, -18.230130254], [-18.22835423971472, -17.814407944053553], [-18.32943536841116, -17.384235516763322], [-18.146221425156927, -16.981156868006494], [-18.120028869, -16.563113828], [-18.31725196969875, -16.39730511515324], [-18.547234587989742, -16.291282987501347], [-18.810310462356025, -16.245656522519056], [-19.006254931, -16.077514288], [-19.270518851571712, -16.209428368679237], [-19.513960809259252, -16.386760486149253], [-19.834648255702046, -16.395600398070563], [-20.079618350056563, -16.569599257818677]]]}}, {"type": "Feature", "properties": {"pcode": "XK0903", "area_name": "Mufo", "parent_pcode": "XK09", "level": "district"}, "geometry": {"type": "Polygon", "coordinates": [[[-16.805931559620248, -15.04184514191986], [-16.806113376214853, -14.89699463235696], [-16.83411343946166, -14.692492776477163], [-16.9377735463549, -14.513343320227555], [-17.07500469955938, -14.35839960132996], [-17.18651220892267, -14.18596136234714], [-17.322982363247604, -14.032518317909048], [-17.40900575121274, -13.84615663089244], [-17.520293414113045, -13.67368704589014], [-17.520004150026676, -13.466934468663819], [-17.493412114671457, -13.261898921699144], [-17.54356296479268, -13.061701032246066], [-17.58471497151764, -12.859461533008513], [-17.79159852996769, -13.0574604788542], [-17.976827575287693, -13.275851390026801], [-18.250265643473117, -13.359884077710552], [-18.519379391748263, -13.456877171390618], [-18.804097487627036, -13.489170989077115], [-19.08214983516362, -13.558410983379538], [-19.3020332316218, -13.74130633549882], [-19.455015839, -13.856923297], [-19.342225085306474, -14.138022219262119], [-19.090635547050127, -14.330496795814469], [-18.99484855845271, -14.62245278401554], [-18.814341281, -14.860314061], [-18.321044247383988, -15.00311730657325], [-17.79219987588932, -14.752634628006772], [-17.310235304010444, -15.0208170989465], [-16.805931559620248, -15.04184514191986]]]}}, {"type": "Feature", "properties": {"pcode": "XK0904", "area_name": "Shinyuna", "parent_pcode": "XK09", "level": "district"}, "geometry": {"type": "Polygon", "coordinates": [[[-16.483612125666706, -15.827029819440565], [-16.592127794779742, -15.659889916123033], [-16.669512410123343, -15.476251632989674], [-16.735764598997775, -15.289126315773796], [-16.805854290481637, -15.103404286866363], [-16.80593156, -15.041845142], [-17.310235304010444, -15.0208170989465], [-17.79219987588932, -14.752634628006772], [-18.321044247383988, -15.00311730657325], [-18.814341281, -14.860314061], [-18.885993252535446, -15.160881552620449], [-18.848820129320185, -15.478607290420884], [-18.991081124736098, -15.768041991235636], [-19.006254931, -16.077514288], [-18.810310462356025, -16.245656522519056], [-18.547234587989742, -16.291282987501347], [-18.31725196969875, -16.39730511515324], [-18.120028869, -16.563113828], [-17.703886950826003, -16.42612184592198], [-17.25457429471048, -16.36850175255475], [-16.88620684127193, -16.11719366738357], [-16.508002660667167, -15.889423183050164], [-16.483612125666706, -15.827029819440565]]]}}, {"type": "Feature", "properties": {"pcode": "XK0905", "area_name": "Migo", "parent_pcode": "XK09", "level": "district"}, "geometry": {"type": "Polygon", "coordinates": [[[-18.27889822127537, -18.230130253953757], [-18.21571946177228, -18.246701621234628], [-17.95997668898329, -18.298555554273555], [-17.701282269918927, -18.33418409416286], [-17.440376320967598, -18.34515136873322], [-17.229979123295102, -18.186132021772146], [-17.050913819479526, -17.992509320453834], [-16.80264348626881, -17.901838969535632], [-16.58029381825958, -17.758940767922113], [-16.64718852193025, -17.519170548631276], [-16.71590506812814, -17.279916090539906], [-16.71653214818842, -17.030746671840138], [-16.739228343781956, -16.782612282546427], [-16.729973176224018, -16.532224727509167], [-16.675949952792024, -16.287559492598113], [-16.574490053660554, -16.059504408673664], [-16.508002661, -15.889423183], [-16.88620684127193, -16.11719366738357], [-17.25457429471048, -16.36850175255475], [-17.703886950826003, -16.42612184592198], [-18.120028869, -16.563113828], [-18.146221425156927, -16.981156868006494], [-18.32943536841116, -17.384235516763322], [-18.22835423971472, -17.814407944053553], [-18.27889822127537, -18.230130253953757]]]}}]}