{"type": "FeatureCollection", "features": [{"type": "Feature", "properties": {"pcode": "XK01", "area_name": "Kilima", "parent_pcode": "XK", "level": "region"}, "geometry": {"type": "Polygon", "coordinates": [[[-25.7604115790486, -13.848777058625092], [-25.892552986902476, -13.87771841743374], [-26.01842067259352, -13.947724799216052], [-26.15772228753912, -13.984312062915581], [-26.248354675311916, -14.09755134417134], [-26.371907746237532, -14.173525044868148], [-26.563013213618735, -14.333131134191936], [-26.722056947612806, -14.52470486435723], [-26.934577622242873, -14.652449607726636], [-27.14802812679181, -14.778634546255532], [-27.323435236764777, -14.951266767354241], [-27.495721207884973, -15.127013978272972], [-27.660339898613636, -15.309954566036934], [-27.82699492201969, -15.491042045345061], [-27.775895272753377, -15.74896093016385], [-27.73840442739178, -16.009206509982953], [-27.519263915719126, -16.155927367218993], [-27.32693227960091, -16.336366042542007], [-27.323552269, -16.340155233], [-26.999931654488268, -16.102072585864], [-26.635413050309186, -15.946118860232152], [-26.252744476710173, -15.826612828629202], [-25.906284803, -15.634394228], [-25.826685849735384, -15.191513427055373], [-25.779257569201345, -14.746004492919079], [-25.673972206467894, -14.305222103340142], [-25.7604115790486, -13.848777058625092]]]}}, {"type": "Feature", "properties": {"pcode": "XK02", "area_name": "Chakula", "parent_pcode": "XK", "level": "region"}, "geometry": {"type": "Polygon", "coordinates": [[[-27.323552269392472, -16.340155233241692], [-27.16223873859433, -16.52099721091009], [-26.99615868788347, -16.70438218177228], [-26.892219831430243, -16.92928607807973], [-26.765002649668205, -17.141890963065002], [-26.544726978451234, -17.203530095873248], [-26.316512004243698, -17.218979353813086], [-26.087597278217714, -17.236013779742176], [-25.86221714446435, -17.19247163041994], [-25.696858384722333, -17.357404285027737], [-25.54547635420055, -17.535251918732815], [-25.32752334490535, -17.619291045046552], [-25.102901653838796, -17.683409567446947], [-25.13311308591973, -17.916239106593245], [-25.183828688744853, -18.14547752518302], [-25.168668496, -18.184091613], [-25.08919592906502, -18.066007389329418], [-24.954766055572495, -18.003532798382363], [-24.84706344054103, -17.91401370471445], [-24.771695922, -17.791775707], [-24.845778134420666, -17.449615151689287], [-24.92819874143654, -17.107883442269916], [-24.898705709407373, -16.76039598409802], [-24.842681611, -16.411544026], [-25.067643447281025, -16.161227725339614], [-25.308384853777405, -15.932507262820895], [-25.643712666579617, -15.83323726651293], [-25.906284803, -15.634394228], [-26.252744476710173, -15.826612828629202], [-26.635413050309186, -15.946118860232152], [-26.999931654488268, -16.102072585864], [-27.323552269392472, -16.340155233241692]]]}}, {"type": "Feature", "properties": {"pcode": "XK03", "area_name": "Jasiri", "parent_pcode": "XK", "level": "region"}, "geometry": {"type": "Polygon", "coordinates": [[[-24.981422439555445, -13.585141973668378], [-25.082283141421374, -13.6220554179892], [-25.222441051893213, -13.654029887919064], [-25.35473068524298, -13.710297636259577], [-25.47321273638378, -13.792355238194931], [-25.610979221989357, -13.834685392007557], [-25.75314410778345, -13.847185350946688], [-25.760411579, -13.848777059], [-25.673972206467894, -14.305222103340142], [-25.779257569201345, -14.746004492919079], [-25.826685849735384, -15.191513427055373], [-25.906284803, -15.634394228], [-25.643712666579617, -15.83323726651293], [-25.308384853777405, -15.932507262820895], [-25.067643447281025, -16.161227725339614], [-24.842681611, -16.411544026], [-24.515774766211006, -15.982542366202726], [-23.95657493092097, -15.77802370591855], [-23.80909752260333, -15.175625259532247], [-23.353717499, -14.870777344], [-23.353323838681156, -14.858546291433349], [-23.360085817856383, -14.84807494200453], [-23.36322868701933, -14.836713586972431], [-23.36497295, -14.825008289], [-23.856547425620242, -14.62906857772163], [-24.093276350241275, -14.100879368285517], [-24.661235719874195, -14.004524847343166], [-24.981422439555445, -13.585141973668378]]]}}, {"type": "Feature", "properties": {"pcode": "XK04", "area_name": "Faraja", "parent_pcode": "XK", "level": "region"}, "geometry": {"type": "Polygon", "coordinates": [[[-25.168668496014664, -18.184091612890885], [-25.0980328697505, -18.364005570213667], [-25.031285141907198, -18.589083711865822], [-24.927557956201667, -18.796169162377954], [-24.835594535555224, -19.008740190815995], [-24.667667925367397, -19.16816022070236], [-24.494951968592787, -19.322378541966653], [-24.364045206210285, -19.525555586580232], [-24.198988207872695, -19.702116282079434], [-24.118591800030977, -19.929049187244143], [-24.045106922018395, -20.158313442076473], [-23.81608379041454, -20.22732785720215], [-23.60888015295667, -20.346831986540856], [-23.419363227870225, -20.4950306587497], [-23.193281497644666, -20.577289777374357], [-23.004982986878264, -20.434382290328692], [-22.83172911971805, -20.27356569751382], [-22.727333924307597, -20.06093976213625], [-22.590065563357584, -19.867896911188414], [-22.404645159082662, -19.71055298942159], [-22.21017235016635, -19.564545583340124], [-21.96676712259018, -19.55723829588892], [-21.837291383, -19.537628899], [-22.171228014007013, -19.117785888928893], [-22.414961302276744, -18.63794660587261], [-22.603102460674723, -18.12113174631994], [-23.021373861, -17.757381689], [-23.459292015417308, -17.748797633346594], [-23.898858646954775, -17.65632207451219], [-24.33450405724333, -17.7633986604149], [-24.771695922, -17.791775707], [-24.84706344054103, -17.91401370471445], [-24.954766055572495, -18.003532798382363], [-25.08919592906502, -18.066007389329418], [-25.168668496014664, -18.184091612890885]]]}}, {"type": "Feature", "properties": {"pcode": "XK05", "area_name": "Njifefo", "parent_pcode": "XK", "level": "region"}, "geometry": {"type": "Polygon", "coordinates": [[[-24.771695922, -17.791775707], [-24.33450405724333, -17.7633986604149], [-23.898858646954775, -17.65632207451219], [-23.459292015417308, -17.748797633346594], [-23.021373861, -17.757381689], [-22.79041064243224, -17.334246728759922], [-22.439009328735356, -16.98007923013359], [-22.34795348833696, -16.47682795185451], [-22.063362012, -16.084402584], [-22.43145998478857, -15.829382642623612], [-22.769279208215476, -15.542169608115504], [-23.01830763910882, -15.160552071653598], [-23.353717499, -14.870777344], [-23.80909752260333, -15.175625259532247], [-23.95657493092097, -15.77802370591855], [-24.515774766211006, -15.982542366202726], [-24.842681611, -16.411544026], [-24.898705709407373, -16.76039598409802], [-24.92819874143654, -17.107883442269916], [-24.845778134420666, -17.449615151689287], [-24.771695922, -17.791775707]]]}}, {"type": "Feature", "properties": {"pcode": "XK06", "area_name": "Kune", "parent_pcode": "XK", "level": "region"}, "geometry": {"type": "Polygon", "coordinates": [[[-21.172302529243886, -12.051432620458868], [-21.191483579090484, -12.03139251025149], [-21.420249524664726, -11.840295113702329], [-21.625747323123772, -11.624288139055201], [-21.804273285385065, -11.38550614838924], [-22.099938964886576, -11.449885922698677], [-22.40055416151681, -11.484432310790528], [-22.657264712177, -11.644070303020863], [-22.921179652521687, -11.791493163006855], [-23.141091464896313, -11.9139020446966], [-23.35269313380604, -12.050173366892594], [-23.501799505353834, -12.254233062265467], [-23.687284728235, -12.425896399657415], [-23.8763007393238, -12.587975154681105], [-24.06913432125738, -12.745492724991898], [-24.245044246733553, -12.921699906579635], [-24.417590793136988, -13.101201889990328], [-24.48626185428176, -13.232387703976558], [-24.564506143013656, -13.358098736550554], [-24.687016361668572, -13.441646096798086], [-24.81937561554536, -13.508503729065371], [-24.94759742750689, -13.572762546638758], [-24.98142244, -13.585141974], [-24.661235719874195, -14.004524847343166], [-24.093276350241275, -14.100879368285517], [-23.856547425620242, -14.62906857772163], [-23.36497295, -14.825008289], [-22.918623577316634, -14.051121227336221], [-22.306109954235193, -13.408596522556277], [-21.895789209575163, -12.606226766924944], [-21.172302529243886, -12.051432620458868]]]}}, {"type": "Feature", "properties": {"pcode": "XK07", "area_name": "Kukanja", "parent_pcode": "XK", "level": "region"}, "geometry": {"type": "Polygon", "coordinates": [[[-22.063362012, -16.084402584], [-22.34795348833696, -16.47682795185451], [-22.439009328735356, -16.98007923013359], [-22.79041064243224, -17.334246728759922], [-23.021373861, -17.757381689], [-22.603102460674723, -18.12113174631994], [-22.414961302276744, -18.63794660587261], [-22.171228014007013, -19.117785888928893], [-21.83729138272498, -19.53762889870887], [-21.725997934814973, -19.520773251265755], [-21.61615132190557, -19.277846097956214], [-21.450567295741433, -19.068892010984886], [-21.379099145495132, -18.810756640040353], [-21.231942937533393, -18.58695624528954], [-20.989432253120114, -18.45683881449729], [-20.770069687216584, -18.29064001025732], [-20.66861595442768, -18.03489905422463], [-20.530560233631846, -17.796913940310212], [-20.26715247752679, -17.7164185128002], [-19.997527368439368, -17.660156088608602], [-19.73057888272959, -17.72710147391436], [-19.46094946745482, -17.78226629109947], [-19.327597329, -17.817716464], [-19.763514510547715, -17.457969512945244], [-19.771616472939503, -16.80143221057575], [-20.229402718728274, -16.456856592770503], [-20.568053541, -16.029632573], [-20.941044762300844, -16.066146379205755], [-21.316165031955578, -16.044533776805327], [-21.686679294285188, -16.14867250519706], [-22.063362012, -16.084402584]]]}}, {"type": "Feature", "properties": {"pcode": "XK08", "area_name": "Njiha", "parent_pcode": "XK", "level": "region"}, "geometry": {"type": "Polygon", "coordinates": [[[-19.661611396332322, -13.65564029244414], [-19.664785036575577, -13.649406558076539], [-19.68675869023112, -13.353593502419399], [-19.90107799964902, -13.15554402946897], [-20.07971168831433, -12.924792289715764], [-20.339487196776517, -12.798678538817482], [-20.60219640710866, -12.678795830435142], [-20.804044411559108, -12.47186217676213], [-20.985374762560298, -12.246732308177632], [-21.172302529, -12.05143262], [-21.895789209575163, -12.606226766924944], [-22.306109954235193, -13.408596522556277], [-22.918623577316634, -14.051121227336221], [-23.36497295, -14.825008289], [-23.36322868701933, -14.836713586972431], [-23.360085817856383, -14.84807494200453], [-23.353323838681156, -14.858546291433349], [-23.353717499, -14.870777344], [-23.01830763910882, -15.160552071653598], [-22.769279208215476, -15.542169608115504], [-22.43145998478857, -15.829382642623612], [-22.063362012, -16.084402584], [-21.686679294285188, -16.14867250519706], [-21.316165031955578, -16.044533776805327], [-20.941044762300844, -16.066146379205755], [-20.568053541, -16.029632573], [-20.302059030968117, -15.4511721648179], [-19.916588346537555, -14.918330371601431], [-19.925927466917493, -14.234741564924283], [-19.661611396332322, -13.65564029244414]]]}}, {"type": "Feature", "properties": {"pcode": "XK09", "area_name": "Kango", "parent_pcode": "XK", "level": "region"}, "geometry": {"type": "Polygon", "coordinates": [[[-16.483612125666706, -15.827029819440565], [-16.592127794779742, -15.659889916123033], [-16.669512410123343, -15.476251632989674], [-16.735764598997775, -15.289126315773796], [-16.805854290481637, -15.103404286866363], [-16.806113376214853, -14.89699463235696], [-16.83411343946166, -14.692492776477163], [-16.9377735463549, -14.513343320227555], [-17.07500469955938, -14.35839960132996], [-17.18651220892267, -14.18596136234714], [-17.322982363247604, -14.032518317909048], [-17.40900575121274, -13.84615663089244], [-17.520293414113045, -13.67368704589014], [-17.520004150026676, -13.466934468663819], [-17.493412114671457, -13.261898921699144], [-17.54356296479268, -13.061701032246066], [-17.58471497151764, -12.859461533008513], [-17.79159852996769, -13.0574604788542], [-17.976827575287693, -13.275851390026801], [-18.250265643473117, -13.359884077710552], [-18.519379391748263, -13.456877171390618], [-18.804097487627036, -13.489170989077115], [-19.08214983516362, -13.558410983379538], [-19.3020332316218, -13.74130633549882], [-19.530206456652454, -13.913748781677054], [-19.661611396, -13.655640292], [-19.925927466917493, -14.234741564924283], [-19.916588346537555, -14.918330371601431], [-20.302059030968117, -15.4511721648179], [-20.568053541, -16.029632573], [-20.229402718728274, -16.456856592770503], [-19.771616472939503, -16.80143221057575], [-19.763514510547715, -17.457969512945244], [-19.327597328651535, -17.817716463507235], [-19.20138252879345, -17.851269254302593], [-18.957320906806643, -17.963386733983583], [-18.715025577073853, -18.077126510241627], [-18.46812802578218, -18.180496538198128], [-18.21571946177228, -18.246701621234628], [-17.95997668898329, -18.298555554273555], [-17.701282269918927, -18.33418409416286], [-17.440376320967598, -18.34515136873322], [-17.229979123295102, -18.186132021772146], [-17.050913819479526, -17.992509320453834], [-16.80264348626881, -17.901838969535632], [-16.58029381825958, -17.758940767922113], [-16.64718852193025, -17.519170548631276], [-16.71590506812814, -17.279916090539906], [-16.71653214818842, -17.030746671840138], [-16.739228343781956, -16.782612282546427], [-16.729973176224018, -16.532224727509167], [-16.675949952792024, -16.287559492598113], [-16.574490053660554, -16.059504408673664], [-16.483612125666706, -15.827029819440565]]]}}]}